{
    "links": {
        "self": "http://www.neowsapp.com/rest/v1/neo/3515456?api_key=iIulBulltgU6a56xZRHN4H3l9WmuAYTsLGpBGhQ2"
    },
    "id": "3515456",
    "neo_reference_id": "3515456",
    "name": "(2010 GD25)",
    "designation": "2010 GD25",
    "nasa_jpl_url": "http://ssd.jpl.nasa.gov/sbdb.cgi?sstr=3515456",
    "absolute_magnitude_h": 26.4,
    "estimated_diameter": {
        "kilometers": {
            "estimated_diameter_min": 0.0139493823,
            "estimated_diameter_max": 0.0311917671
        },
        "meters": {
            "estimated_diameter_min": 13.9493822934,
            "estimated_diameter_max": 31.1917670523
        },
        "miles": {
            "estimated_diameter_min": 0.0086677416,
            "estimated_diameter_max": 0.0193816595
        },
        "feet": {
            "estimated_diameter_min": 45.7656914036,
            "estimated_diameter_max": 102.3351970157
        }
    },
    "is_potentially_hazardous_asteroid": false,
    "close_approach_data": [
        {
            "close_approach_date": "2010-03-31",
            "close_approach_date_full": "2010-Mar-31 10:34",
            "epoch_date_close_approach": 1270031640000,
            "relative_velocity": {
                "kilometers_per_second": "9.3760106704",
                "kilometers_per_hour": "33753.6384133313",
                "miles_per_hour": "20973.1982685502"
            },
            "miss_distance": {
                "astronomical": "0.0251153657",
                "lunar": "9.7698772573",
                "kilometers": "3757205.212991059",
                "miles": "2334619.0616282542"
            },
            "orbiting_body": "Earth"
        }
    ],
    "orbital_data": {
        "orbit_id": "9",
        "orbit_determination_date": "2017-04-06 08:57:52",
        "first_observation_date": "2010-04-09",
        "last_observation_date": "2010-04-21",
        "data_arc_in_days": 12,
        "observations_used": 44,
        "orbit_uncertainty": "8",
        "minimum_orbit_intersection": ".0132574",
        "jupiter_tisserand_invariant": "3.910",
        "epoch_osculation": "2455298.5",
        "eccentricity": ".479977725178129",
        "semi_major_axis": "1.807969987978923",
        "inclination": "4.093418561387423",
        "ascending_node_longitude": "196.5256052471955",
        "orbital_period": "887.9433362573347",
        "perihelion_distance": ".9401846659584704",
        "perihelion_argument": "313.924742847533",
        "aphelion_distance": "2.675755309999376",
        "perihelion_time": "2455255.796553034032",
        "mean_anomaly": "17.31331300096965",
        "mean_motion": ".4054312761863764",
        "equinox": "J2000",
        "orbit_class": {
            "orbit_class_type": "APO",
            "orbit_class_description": "Near-Earth asteroid orbits which cross the Earth’s orbit similar to that of 1862 Apollo",
            "orbit_class_range": "a (semi-major axis) > 1.0 AU; q (perihelion) < 1.017 AU"
        }
    },
    "is_sentry_object": false
}